24903,IRIDIUM 26,1997,100.2,-1.0,-,86.39,Inactive,0,LEO,USA,USA,Unknown,Unknown,Unknown,1 24903U 97043A   25105.59070029  .00000684  00000+0  22393-3 0  9995,2 24903  86.3948 136.9225 0002133  89.8274 270.3167 14.37081751447753,14.37081751,0.0002133,LEO
24907,IRIDIUM 22,1997,100.29,-1.0,-,86.4,Inactive,0,LEO,USA,USA,Unknown,Unknown,Unknown,1 24907U 97043E   25105.60834978  .00000620  00000+0  20728-3 0  9992,2 24907  86.3957 140.3980 0002281  93.1378 267.0079 14.35904070447796,14.3590407,0.0002281,LEO
24925,DUMMY MASS 1,1997,96.84,-1.0,-,86.34,Inactive,0,LEO,PRC,China,Unknown,Unknown,Unknown,1 24925U 97048A   25105.56284839  .00000798  00000+0  86127-4 0  9999,2 24925  86.3387 164.2763 0007386  27.9014 332.2605 14.86926196495826,14.86926196,0.0007386,LEO
24926,DUMMY MASS 2,1997,96.86,-1.0,-,86.34,Inactive,0,LEO,PRC,China,Unknown,Unknown,Unknown,1 24926U 97048B   25105.58189084  .00000797  00000+0  86603-4 0  9996,2 24926  86.3389 165.8616 0008572  35.9218 324.2582 14.86679189495604,14.86679189,0.0008572,LEO
24944,IRIDIUM 29,1997,100.25,-1.0,-,86.4,Inactive,0,LEO,Kazakhstan,USA,Unknown,Unknown,Unknown,1 24944U 97051A   25105.58362891  .00000772  00000+0  25700-3 0  9992,2 24944  86.4011 170.1418 0002468  96.8686 263.2792 14.36405948444287,14.36405948,0.0002468,LEO
24946,IRIDIUM 33,1997,100.36,-1.0,-,86.39,Inactive,0,LEO,Kazakhstan,USA,Unknown,Unknown,Unknown,1 24946U 97051C   25105.56684296  .00000505  00000+0  17120-3 0  9999,2 24946  86.3927 169.4043 0005594 286.6255  73.4326 14.34850075443762,14.34850075,0.0005594,LEO
24948,IRIDIUM 28,1997,100.19,-1.0,-,86.4,Inactive,0,LEO,Kazakhstan,USA,Unknown,Unknown,Unknown,1 24948U 97051E   25105.59756804  .00000705  00000+0  22983-3 0  9994,2 24948  86.4013 167.6902 0001855  90.5509 269.5901 14.37333483444855,14.37333483,0.0001855,LEO
24967,IRIDIUM 36,1997,100.17,-1.0,-,86.4,Inactive,0,LEO,USA,USA,Unknown,Unknown,Unknown,1 24967U 97056C   25105.29207352  .00000891  00000+0  29102-3 0  9992,2 24967  86.4033 199.3882 0002050 101.0569 259.0859 14.37547991443181,14.37547991,0.000205,LEO
